0 COSMOS 1579 COOLANT
1 27911U 84069AD  13282.93911986  .00000053  00000-0  11510-3 0  4869
2 27911 065.0469 123.0535 0046459 186.3780 173.6749 13.89942746551092
0 COSMOS 1579 COOLANT
1 27911U 84069AD  13287.90369659  .00000072  00000-0  13036-3 0  4872
2 27911 065.0468 110.0950 0046955 184.4090 175.6808 13.89944820551781
0 COSMOS 1579 COOLANT
1 27911U 84069AD  13289.91830023  .00000077  00000-0  13369-3 0  4888
2 27911 065.0466 104.8367 0046476 183.7640 176.3074 13.89945619552065
0 COSMOS 1579 COOLANT
1 27911U 84069AD  13292.86826068  .00000077  00000-0  13369-3 0  4891
2 27911 065.0466 097.1368 0046475 182.7453 177.3362 13.89946601552478
0 COSMOS 1579 COOLANT
1 27911U 84069AD  13294.81091632  .00000094  00000-0  14731-3 0  4904
2 27911 065.0464 092.0645 0046973 181.5021 178.6188 13.89947997552748
